NORAD_CAT_ID,OBJECT_NAME,OBJECT_TYPE,EPOCH,MEAN_MOTION,ECCENTRICITY,INCLINATION,RA_OF_ASC_NODE,ARG_OF_PERICENTER,MEAN_ANOMALY,BSTAR,MEAN_MOTION_DOT,MEAN_MOTION_DDOT,TLE_LINE0,TLE_LINE1,TLE_LINE2,SEMIMAJOR_AXIS,PERIOD,APOGEE,PERIGEE,DECAYED
52276.0,STARLINK-3778,PAYLOAD,2023-12-12 20:54:59,15.0883768,0.0001456,53.2159,180.4552,81.5224,278.5933,3.6353e-05,2.91e-06,0.0,0 STARLINK-3778,1 52276U 22041R   23346.87152671  .00000291  00000-0  36353-4 0  9992,2 52276  53.2159 180.4552 0001456  81.5224 278.5933 15.08837680 90903,6917.887,95.438,540.76,538.745,0.0
52276.0,STARLINK-3778,PAYLOAD,2023-12-13 19:10:23,15.08841411,0.000145,53.2156,176.2931,82.8016,277.3141,6.8219e-05,7.98e-06,0.0,0 STARLINK-3778,1 52276U 22041R   23347.79888355  .00000798  00000-0  68219-4 0  9997,2 52276  53.2156 176.2931 0001450  82.8016 277.3141 15.08841411 92267,6917.876,95.437,540.744,538.738,0.0
52276.0,STARLINK-3778,PAYLOAD,2023-12-14 19:01:10,15.08841573,0.0001385,53.2159,171.8252,90.227,269.8881,5.9731e-05,6.63e-06,0.0,0 STARLINK-3778,1 52276U 22041R   23348.79248250  .00000663  00000-0  59731-4 0  9992,2 52276  53.2159 171.8252 0001385  90.2270 269.8881 15.08841573 91196,6917.876,95.437,540.699,538.782,0.0
52276.0,STARLINK-3778,PAYLOAD,2023-12-15 18:51:57,15.08836922,0.0001446,53.2164,167.3632,100.9099,259.2056,-1.2829e-05,-4.92e-06,0.0,0 STARLINK-3778,1 52276U 22041R   23349.78608750 -.00000492  00000-0 -12829-4 0  9996,2 52276  53.2164 167.3632 0001446 100.9099 259.2056 15.08836922 92561,6917.89,95.438,540.755,538.754,0.0
52276.0,STARLINK-3778,PAYLOAD,2023-12-16 12:21:12,15.08841114,0.0001337,53.216,164.0894,88.9198,271.1948,5.2109e-05,5.42e-06,0.0,0 STARLINK-3778,1 52276U 22041R   23350.51472346  .00000542  00000-0  52109-4 0  9998,2 52276  53.2160 164.0894 0001337  88.9198 271.1948 15.08841114 91454,6917.877,95.437,540.667,538.817,0.0
52276.0,STARLINK-3778,PAYLOAD,2023-12-16 18:42:44,15.08843495,0.0001313,53.2161,162.9007,92.8739,267.2403,6.5806e-05,7.6e-06,0.0,0 STARLINK-3778,1 52276U 22041R   23350.77968121  .00000760  00000-0  65806-4 0  9997,2 52276  53.2161 162.9007 0001313  92.8739 267.2403 15.08843495 92713,6917.87,95.437,540.643,538.826,0.0
52276.0,STARLINK-3778,PAYLOAD,2023-12-17 16:58:09,15.08833501,0.0001273,53.216,158.7391,91.9361,268.1776,1.4269e-05,-6.1e-07,0.0,0 STARLINK-3778,1 52276U 22041R   23351.70705098 -.00000061  00000-0  14269-4 0  9995,2 52276  53.2160 158.7391 0001273  91.9361 268.1776 15.08833501 92852,6917.9,95.438,540.646,538.885,0.0
52276.0,STARLINK-3778,PAYLOAD,2023-12-18 18:24:18,15.08844629,0.0001286,53.216,153.9814,87.722,272.392,5.0721e-05,5.2e-06,0.0,0 STARLINK-3778,1 52276U 22041R   23352.76688444  .00000520  00000-0  50721-4 0  9999,2 52276  53.2160 153.9814 0001286  87.7220 272.3920 15.08844629 93010,6917.866,95.437,540.621,538.842,0.0
52276.0,STARLINK-3778,PAYLOAD,2023-12-19 18:15:06,15.08839787,0.0001345,53.2165,149.524,75.8266,284.2875,7.9457e-05,9.77e-06,0.0,0 STARLINK-3778,1 52276U 22041R   23353.76048913  .00000977  00000-0  79457-4 0  9994,2 52276  53.2165 149.5240 0001345  75.8266 284.2875 15.08839787 93169,6917.881,95.438,540.676,538.816,0.0
52276.0,STARLINK-3778,PAYLOAD,2023-12-20 16:30:30,15.08846211,0.0001276,53.2157,145.3599,81.8189,278.2948,9.2691e-07,-2.73e-06,0.0,0 STARLINK-3778,1 52276U 22041R   23354.68784813 -.00000273  00000-0  92691-6 0  9999,2 52276  53.2157 145.3599 0001276  81.8189 278.2948 15.08846211 92089,6917.861,95.437,540.609,538.844,0.0
52276.0,STARLINK-3778,PAYLOAD,2023-12-21 14:45:53,15.08834742,0.0001308,53.2157,141.1974,103.2053,256.9085,0.00017148,2.442e-05,0.0,0 STARLINK-3778,1 52276U 22041R   23355.61520820  .00002442  00000-0  17148-3 0  9999,2 52276  53.2157 141.1974 0001308 103.2053 256.9085 15.08834742 92222,6917.896,95.438,540.666,538.857,0.0
52276.0,STARLINK-3778,PAYLOAD,2023-12-21 16:21:16,15.08845516,0.0001235,53.2156,140.9004,82.4219,277.6913,6.9923e-05,8.25e-06,0.0,0 STARLINK-3778,1 52276U 22041R   23355.68144603  .00000825  00000-0  69923-4 0  9999,2 52276  53.2156 140.9004 0001235  82.4219 277.6913 15.08845516 92235,6917.864,95.437,540.583,538.874,0.0
52276.0,STARLINK-3778,PAYLOAD,2023-12-22 14:36:41,15.08842178,0.0001343,53.2155,136.7384,73.4184,286.6956,5.4368e-05,5.78e-06,0.0,0 STARLINK-3778,1 52276U 22041R   23356.60880919  .00000578  00000-0  54368-4 0  9991,2 52276  53.2155 136.7384 0001343  73.4184 286.6956 15.08842178 92372,6917.874,95.437,540.668,538.81,0.0
52276.0,STARLINK-3778,PAYLOAD,2023-12-22 16:12:04,15.08842635,0.000136,53.2155,136.4413,71.8441,288.2699,5.6472e-05,6.11e-06,0.0,0 STARLINK-3778,1 52276U 22041R   23356.67504874  .00000611  00000-0  56472-4 0  9997,2 52276  53.2155 136.4413 0001360  71.8441 288.2699 15.08842635 93606,6917.872,95.437,540.678,538.797,0.0
52276.0,STARLINK-3778,PAYLOAD,2023-12-23 14:27:28,15.08834477,0.0001299,53.2168,132.275,89.9068,270.2073,-5.0534e-05,-1.092e-05,0.0,0 STARLINK-3778,1 52276U 22041R   23357.60241775 -.00001092  00000-0 -50534-4 0  9998,2 52276  53.2168 132.2750 0001299  89.9068 270.2073 15.08834477 92526,6917.897,95.438,540.661,538.864,0.0
52276.0,STARLINK-3778,PAYLOAD,2023-12-23 19:13:37,15.0883809,0.000129,53.217,131.3817,99.2367,260.8771,7.4824e-06,-1.69e-06,0.0,0 STARLINK-3778,1 52276U 22041R   23357.80113350 -.00000169  00000-0  74824-5 0  9999,2 52276  53.2170 131.3817 0001290  99.2367 260.8771 15.08838090 93773,6917.886,95.438,540.644,538.859,0.0
52276.0,STARLINK-3778,PAYLOAD,2023-12-24 14:18:15,15.08845484,0.0001271,53.2172,127.8132,96.3041,263.8096,9.0615e-05,1.155e-05,0.0,0 STARLINK-3778,1 52276U 22041R   23358.59600867  .00001155  00000-0  90615-4 0  9990,2 52276  53.2172 127.8132 0001271  96.3041 263.8096 15.08845484 92677,6917.864,95.437,540.608,538.849,0.0
52276.0,STARLINK-3778,PAYLOAD,2023-12-24 15:53:38,15.08848908,0.000129,53.2171,127.5156,98.5867,261.5271,0.00011301,1.512e-05,0.0,0 STARLINK-3778,1 52276U 22041R   23358.66224587  .00001512  00000-0  11301-3 0  9990,2 52276  53.2171 127.5156 0001290  98.5867 261.5271 15.08848908 93901,6917.853,95.437,540.611,538.826,0.0
52276.0,STARLINK-3778,PAYLOAD,2023-12-25 10:58:16,15.08834681,0.0001329,53.2168,123.9479,104.8871,255.2269,5.4407e-05,5.78e-06,0.0,0 STARLINK-3778,1 52276U 22041R   23359.45713750  .00000578  00000-0  54407-4 0  9999,2 52276  53.2168 123.9479 0001329 104.8871 255.2269 15.08834681 94028,6917.897,95.438,540.681,538.842,0.0
52276.0,STARLINK-3778,PAYLOAD,2023-12-25 14:09:02,15.08840454,0.0001273,53.2174,123.353,97.2455,262.8681,0.00010447,1.375e-05,0.0,0 STARLINK-3778,1 52276U 22041R   23359.58961301  .00001375  00000-0  10447-3 0  9991,2 52276  53.2174 123.3530 0001273  97.2455 262.8681 15.08840454 92821,6917.879,95.438,540.625,538.863,0.0
52276.0,STARLINK-3778,PAYLOAD,2023-12-26 07:38:17,15.08834768,0.0001212,53.2168,120.0844,93.1771,266.936,5.0961e-05,5.23e-06,0.0,0 STARLINK-3778,1 52276U 22041R   23360.31826011  .00000523  00000-0  50961-4 0  9992,2 52276  53.2168 120.0844 0001212  93.1771 266.9360 15.08834768 94153,6917.896,95.438,540.6,538.923,0.0
52276.0,STARLINK-3778,PAYLOAD,2023-12-26 13:59:50,15.0884092,0.000121,53.2166,118.8947,106.2487,253.8639,-2.1472e-05,-6.3e-06,0.0,0 STARLINK-3778,1 52276U 22041R   23360.58321792 -.00000630  00000-0 -21472-4 0  9993,2 52276  53.2166 118.8947 0001210 106.2487 253.8639 15.08840920 92977,6917.878,95.437,540.58,538.906,0.0
52276.0,STARLINK-3778,PAYLOAD,2023-12-27 10:39:50,15.08838705,0.0001139,53.2165,115.029,100.4415,259.6705,4.1674e-05,3.75e-06,0.0,0 STARLINK-3778,1 52276U 22041R   23361.44433882  .00000375  00000-0  41674-4 0  9993,2 52276  53.2165 115.0290 0001139 100.4415 259.6705 15.08838705 94320,6917.884,95.438,540.537,538.961,0.0
52276.0,STARLINK-3778,PAYLOAD,2023-12-27 13:50:37,15.08807092,0.0001429,53.2167,114.4353,76.6437,283.4714,0.00055072,8.48e-05,0.0,0 STARLINK-3778,1 52276U 22041R   23361.57682658  .00008480  00000-0  55072-3 0  9995,2 52276  53.2167 114.4353 0001429  76.6437 283.4714 15.08807092 93122,6917.981,95.44,540.835,538.857,0.0
52276.0,STARLINK-3778,PAYLOAD,2023-12-27 15:25:59,15.0884482,0.0001307,53.217,114.1368,79.7413,280.3726,9.4223e-05,1.212e-05,0.0,0 STARLINK-3778,1 52276U 22041R   23361.64305536  .00001212  00000-0  94223-4 0  9998,2 52276  53.2170 114.1368 0001307  79.7413 280.3726 15.08844820 93132,6917.866,95.437,540.635,538.826,0.0
52276.0,STARLINK-3778,PAYLOAD,2023-12-28 12:06:01,15.08838634,0.0001324,53.217,110.27,78.0441,282.07,4.3658e-05,4.07e-06,0.0,0 STARLINK-3778,1 52276U 22041R   23362.50418142  .00000407  00000-0  43658-4 0  9993,2 52276  53.2170 110.2700 0001324  78.0441 282.0700 15.08838634 94487,6917.885,95.438,540.665,538.834,0.0
52276.0,STARLINK-3778,PAYLOAD,2023-12-28 13:41:24,15.08839541,0.0001427,53.2171,109.9729,72.4125,287.7023,5.4319e-05,5.77e-06,0.0,0 STARLINK-3778,1 52276U 22041R   23362.57042095  .00000577  00000-0  54319-4 0  9994,2 52276  53.2171 109.9729 0001427  72.4125 287.7023 15.08839541 93279,6917.882,95.438,540.734,538.76,0.0
52276.0,STARLINK-3778,PAYLOAD,2023-12-29 13:32:11,15.08830452,0.000124,53.2171,105.5183,69.0078,291.1047,0.00016844,2.393e-05,0.0,0 STARLINK-3778,1 52276U 22041R   23363.56402253  .00002393  00000-0  16844-3 0  9998,2 52276  53.2171 105.5183 0001240  69.0078 291.1047 15.08830452 93421,6917.91,95.438,540.632,538.917,0.0
52276.0,STARLINK-3778,PAYLOAD,2023-12-30 03:50:39,15.08839191,0.0001448,53.217,102.8381,105.6688,254.4464,5.8289e-05,6.4e-06,0.0,0 STARLINK-3778,1 52276U 22041R   23364.16017825  .00000640  00000-0  58289-4 0  9995,2 52276  53.2170 102.8381 0001448 105.6688 254.4464 15.08839191 94733,6917.883,95.438,540.75,538.746,0.0
52276.0,STARLINK-3778,PAYLOAD,2023-12-30 13:22:57,15.08846401,0.0001335,53.2165,101.0541,85.5812,274.5333,0.00010696,1.415e-05,0.0,0 STARLINK-3778,1 52276U 22041R   23364.55761333  .00001415  00000-0  10696-3 0  9998,2 52276  53.2165 101.0541 0001335  85.5812 274.5333 15.08846401 93577,6917.861,95.437,540.649,538.802,0.0
